ORBCOMM FM115           
1 41186U 15081H   25303.71498123  .00001072  00000+0  24219-3 0  9993
2 41186  46.9970 114.8627 0001140 294.9988  65.0781 14.62786426527615
ORBCOMM FM108           
1 41187U 15081J   25302.73312739  .00001277  00000+0  30896-3 0  9998
2 41187  47.0042 191.4557 0002482 222.6208 137.4485 14.58446618526439
ORBCOMM FM117           
1 41188U 15081K   25302.97343766  .00001192  00000+0  29087-3 0  9995
2 41188  47.0006 189.0386 0003107 232.2515 127.8089 14.58447889526519
ORBCOMM FM116           
1 41189U 15081L   25303.22972614  .00001254  00000+0  30351-3 0  9990
2 41189  47.0024 277.6158 0001304  28.9463 331.1495 14.58521194525365
